{"type": "FeatureCollection", "features": [ {"type": "Feature", "properties": {"norad_id": 39155, "name": "COSMOS 2485 (747)", "group": "glo-ops", "lat": -61.09634376872656, "lon": -43.84407646568472, "alt_km": 19079.56287145577, "timestamp": "2025-12-12T22:42:12.806694+00:00", "meta": {"OBJECT_NAME": "COSMOS 2485 (747)", "OBJECT_ID": "2013-019A", "EPOCH": "2025-12-10T17:41:35.437344", "MEAN_MOTION": 2.13102878, "ECCENTRICITY": 0.00245732, "INCLINATION": 65.3124, "RA_OF_ASC_NODE": 79.9346, "ARG_OF_PERICENTER": 229.2052, "MEAN_ANOMALY": 130.5984, "EPHEMERIS_TYPE": 0, "CLASSIFICATION_TYPE": "U", "NORAD_CAT_ID": 39155, "ELEMENT_SET_NO": 999, "REV_AT_EPOCH": 9826, "BSTAR": 0, "MEAN_MOTION_DOT": -2.2e-07, "MEAN_MOTION_DDOT": 0}, "tle": {"line1": "1 39155U 13019A   25344.73721571 -.00000022  00000+0  00000+0 0  9991", "line2": "2 39155  65.3124  79.9346 0024573 229.2052 130.5984  2.13102878 98264"}}, "geometry": {"type": "Point", "coordinates": [-43.84407646568472, -61.09634376872656]}}, {"type": "Feature", "properties": {"norad_id": 39620, "name": "COSMOS 2492 (754)", "group": "glo-ops", "lat": -60.88808928933569, "lon": -95.05505320868562, "alt_km": 19103.414945975343, "timestamp": "2025-12-12T22:42:12.806706+00:00", "meta": {"OBJECT_NAME": "COSMOS 2492 (754)", "OBJECT_ID": "2014-012A", "EPOCH": "2025-12-11T15:13:27.039936", "MEAN_MOTION": 2.13102949, "ECCENTRICITY": 0.00142133, "INCLINATION": 65.4084, "RA_OF_ASC_NODE": 320.3085, "ARG_OF_PERICENTER": 311.3676, "MEAN_ANOMALY": 48.5095, "EPHEMERIS_TYPE": 0, "CLASSIFICATION_TYPE": "U", "NORAD_CAT_ID": 39620, "ELEMENT_SET_NO": 999, "REV_AT_EPOCH": 9124, "BSTAR": 0, "MEAN_MOTION_DOT": -5.3e-07, "MEAN_MOTION_DDOT": 0}, "tle": {"line1": "1 39620U 14012A   25345.63434074 -.00000053  00000+0  00000+0 0  9995", "line2": "2 39620  65.4084 320.3085 0014213 311.3676  48.5095  2.13102949 91246"}}, "geometry": {"type": "Point", "coordinates": [-95.05505320868562, -60.88808928933569]}}, {"type": "Feature", "properties": {"norad_id": 40001, "name": "COSMOS 2500 (755)", "group": "glo-ops", "lat": 23.430891565369237, "lon": 128.53590476087726, "alt_km": 19118.121397031708, "timestamp": "2025-12-12T22:42:12.806717+00:00", "meta": {"OBJECT_NAME": "COSMOS 2500 (755)", "OBJECT_ID": "2014-032A", "EPOCH": "2025-12-09T11:02:48.490944", "MEAN_MOTION": 2.13105796, "ECCENTRICITY": 0.000831, "INCLINATION": 65.3451, "RA_OF_ASC_NODE": 320.1442, "ARG_OF_PERICENTER": 219.1348, "MEAN_ANOMALY": 140.802, "EPHEMERIS_TYPE": 0, "CLASSIFICATION_TYPE": "U", "NORAD_CAT_ID": 40001, "ELEMENT_SET_NO": 999, "REV_AT_EPOCH": 8941, "BSTAR": 0, "MEAN_MOTION_DOT": -4.9e-07, "MEAN_MOTION_DDOT": 0}, "tle": {"line1": "1 40001U 14032A   25343.46028346 -.00000049  00000+0  00000+0 0  9997", "line2": "2 40001  65.3451 320.1442 0008310 219.1348 140.8020  2.13105796 89418"}}, "geometry": {"type": "Point", "coordinates": [128.53590476087726, 23.430891565369237]}}, {"type": "Feature", "properties": {"norad_id": 40315, "name": "COSMOS 2501 (702K)", "group": "glo-ops", "lat": -39.29373951394948, "lon": 172.8539484093813, "alt_km": 19152.75679832546, "timestamp": "2025-12-12T22:42:12.806728+00:00", "meta": {"OBJECT_NAME": "COSMOS 2501 (702K)", "OBJECT_ID": "2014-075A", "EPOCH": "2025-12-07T20:13:51.362112", "MEAN_MOTION": 2.13101338, "ECCENTRICITY": 0.00201356, "INCLINATION": 63.6139, "RA_OF_ASC_NODE": 196.9947, "ARG_OF_PERICENTER": 204.4913, "MEAN_ANOMALY": 155.4908, "EPHEMERIS_TYPE": 0, "CLASSIFICATION_TYPE": "U", "NORAD_CAT_ID": 40315, "ELEMENT_SET_NO": 999, "REV_AT_EPOCH": 8577, "BSTAR": 0, "MEAN_MOTION_DOT": 5.4e-07, "MEAN_MOTION_DDOT": 0}, "tle": {"line1": "1 40315U 14075A   25341.84295558  .00000054  00000+0  00000+0 0  9998", "line2": "2 40315  63.6139 196.9947 0020135 204.4913 155.4908  2.13101338 85773"}}, "geometry": {"type": "Point", "coordinates": [172.8539484093813, -39.29373951394948]}}, {"type": "Feature", "properties": {"norad_id": 41330, "name": "COSMOS 2514 (751)", "group": "glo-ops", "lat": -29.434216691778484, "lon": -55.77993961908048, "alt_km": 19142.968687303928, "timestamp": "2025-12-12T22:42:12.806739+00:00", "meta": {"OBJECT_NAME": "COSMOS 2514 (751)", "OBJECT_ID": "2016-008A", "EPOCH": "2025-12-11T02:40:55.560288", "MEAN_MOTION": 2.13102604, "ECCENTRICITY": 0.0012161, "INCLINATION": 65.1347, "RA_OF_ASC_NODE": 319.4596, "ARG_OF_PERICENTER": 220.0573, "MEAN_ANOMALY": 139.8518, "EPHEMERIS_TYPE": 0, "CLASSIFICATION_TYPE": "U", "NORAD_CAT_ID": 41330, "ELEMENT_SET_NO": 999, "REV_AT_EPOCH": 7661, "BSTAR": 0, "MEAN_MOTION_DOT": -5.2e-07, "MEAN_MOTION_DDOT": 0}, "tle": {"line1": "1 41330U 16008A   25345.11175417 -.00000052  00000+0  00000+0 0  9998", "line2": "2 41330  65.1347 319.4596 0012161 220.0573 139.8518  2.13102604 76610"}}, "geometry": {"type": "Point", "coordinates": [-55.77993961908048, -29.434216691778484]}}, {"type": "Feature", "properties": {"norad_id": 42939, "name": "COSMOS 2522 (752)", "group": "glo-ops", "lat": 64.0427555096156, "lon": -69.34047644633598, "alt_km": 19134.595701971168, "timestamp": "2025-12-12T22:42:12.806761+00:00", "meta": {"OBJECT_NAME": "COSMOS 2522 (752)", "OBJECT_ID": "2017-055A", "EPOCH": "2025-12-10T22:48:12.074400", "MEAN_MOTION": 2.1310181, "ECCENTRICITY": 0.00064932, "INCLINATION": 64.076, "RA_OF_ASC_NODE": 198.29, "ARG_OF_PERICENTER": 225.3551, "MEAN_ANOMALY": 134.6611, "EPHEMERIS_TYPE": 0, "CLASSIFICATION_TYPE": "U", "NORAD_CAT_ID": 42939, "ELEMENT_SET_NO": 999, "REV_AT_EPOCH": 6396, "BSTAR": 0, "MEAN_MOTION_DOT": 5.1e-07, "MEAN_MOTION_DDOT": 0}, "tle": {"line1": "1 42939U 17055A   25344.95013975  .00000051  00000+0  00000+0 0  9996", "line2": "2 42939  64.0760 198.2900 0006493 225.3551 134.6611  2.13101810 63969"}}, "geometry": {"type": "Point", "coordinates": [-69.34047644633598, 64.0427555096156]}}, {"type": "Feature", "properties": {"norad_id": 43508, "name": "COSMOS 2527 (756)", "group": "glo-ops", "lat": 51.17546153545778, "lon": -134.38240605625617, "alt_km": 19129.20196853111, "timestamp": "2025-12-12T22:42:12.806786+00:00", "meta": {"OBJECT_NAME": "COSMOS 2527 (756)", "OBJECT_ID": "2018-053A", "EPOCH": "2025-12-10T21:51:43.881984", "MEAN_MOTION": 2.13102002, "ECCENTRICITY": 0.0008579, "INCLINATION": 65.4716, "RA_OF_ASC_NODE": 80.1926, "ARG_OF_PERICENTER": 224.6583, "MEAN_ANOMALY": 135.289, "EPHEMERIS_TYPE": 0, "CLASSIFICATION_TYPE": "U", "NORAD_CAT_ID": 43508, "ELEMENT_SET_NO": 999, "REV_AT_EPOCH": 5826, "BSTAR": 0, "MEAN_MOTION_DOT": -2.3e-07, "MEAN_MOTION_DDOT": 0}, "tle": {"line1": "1 43508U 18053A   25344.91092456 -.00000023  00000+0  00000+0 0  9995", "line2": "2 43508  65.4716  80.1926 0008579 224.6583 135.2890  2.13102002 58266"}}, "geometry": {"type": "Point", "coordinates": [-134.38240605625617, 51.17546153545778]}}, {"type": "Feature", "properties": {"norad_id": 43687, "name": "COSMOS 2529 (757)", "group": "glo-ops", "lat": 40.767621222252096, "lon": -136.57592168161, "alt_km": 19141.59740195753, "timestamp": "2025-12-12T22:42:12.806804+00:00", "meta": {"OBJECT_NAME": "COSMOS 2529 (757)", "OBJECT_ID": "2018-086A", "EPOCH": "2025-12-11T22:43:29.447040", "MEAN_MOTION": 2.13101914, "ECCENTRICITY": 0.00072711, "INCLINATION": 64.292, "RA_OF_ASC_NODE": 198.9152, "ARG_OF_PERICENTER": 254.2987, "MEAN_ANOMALY": 105.6915, "EPHEMERIS_TYPE": 0, "CLASSIFICATION_TYPE": "U", "NORAD_CAT_ID": 43687, "ELEMENT_SET_NO": 999, "REV_AT_EPOCH": 5529, "BSTAR": 0, "MEAN_MOTION_DOT": 6.1e-07, "MEAN_MOTION_DDOT": 0}, "tle": {"line1": "1 43687U 18086A   25345.94686860  .00000061  00000+0  00000+0 0  9992", "line2": "2 43687  64.2920 198.9152 0007271 254.2987 105.6915  2.13101914 55292"}}, "geometry": {"type": "Point", "coordinates": [-136.57592168161, 40.767621222252096]}}, {"type": "Feature", "properties": {"norad_id": 44299, "name": "COSMOS 2534 (758)", "group": "glo-ops", "lat": -0.708016860101002, "lon": 19.2289367788299, "alt_km": 19135.516888630773, "timestamp": "2025-12-12T22:42:12.806816+00:00", "meta": {"OBJECT_NAME": "COSMOS 2534 (758)", "OBJECT_ID": "2019-030A", "EPOCH": "2025-12-10T14:34:24.563136", "MEAN_MOTION": 2.13102261, "ECCENTRICITY": 0.0008999, "INCLINATION": 64.3653, "RA_OF_ASC_NODE": 198.9649, "ARG_OF_PERICENTER": 283.4628, "MEAN_ANOMALY": 263.2195, "EPHEMERIS_TYPE": 0, "CLASSIFICATION_TYPE": "U", "NORAD_CAT_ID": 44299, "ELEMENT_SET_NO": 999, "REV_AT_EPOCH": 5090, "BSTAR": 0, "MEAN_MOTION_DOT": 4.7e-07, "MEAN_MOTION_DDOT": 0}, "tle": {"line1": "1 44299U 19030A   25344.60722874  .00000047  00000+0  00000+0 0  9994", "line2": "2 44299  64.3653 198.9649 0008999 283.4628 263.2195  2.13102261 50901"}}, "geometry": {"type": "Point", "coordinates": [19.2289367788299, -0.708016860101002]}}, {"type": "Feature", "properties": {"norad_id": 44850, "name": "COSMOS 2544 (759)", "group": "glo-ops", "lat": 14.961027669672665, "lon": -107.04642886978701, "alt_km": 19125.825700765006, "timestamp": "2025-12-12T22:42:12.806827+00:00", "meta": {"OBJECT_NAME": "COSMOS 2544 (759)", "OBJECT_ID": "2019-088A", "EPOCH": "2025-12-11T19:03:21.616416", "MEAN_MOTION": 2.13101808, "ECCENTRICITY": 0.00136914, "INCLINATION": 65.4596, "RA_OF_ASC_NODE": 79.99, "ARG_OF_PERICENTER": 249.2614, "MEAN_ANOMALY": 110.6076, "EPHEMERIS_TYPE": 0, "CLASSIFICATION_TYPE": "U", "NORAD_CAT_ID": 44850, "ELEMENT_SET_NO": 999, "REV_AT_EPOCH": 4672, "BSTAR": 0, "MEAN_MOTION_DOT": -3.2e-07, "MEAN_MOTION_DDOT": 0}, "tle": {"line1": "1 44850U 19088A   25345.79400019 -.00000032  00000+0  00000+0 0  9990", "line2": "2 44850  65.4596  79.9900 0013691 249.2614 110.6076  2.13101808 46724"}}, "geometry": {"type": "Point", "coordinates": [-107.04642886978701, 14.961027669672665]}}]}